{
"type": "FeatureCollection",
"name": "select_watermain",
"crs": { "type": "name", "properties": { "name": "urn:ogc:def:crs:OGC:1.3:CRS84" } },
"features": [
{"type":"Feature","properties":{":id":"row-psxw~gcxc.st2q",":version":"rv-9epz.bfmk-g8d9",":created_at":"2026-09-01T22:30:44.003Z",":updated_at":"2026-09-01T22:30:44.003Z","p_zone":"GLENMORE","status_ind":"ACTIVE","length":"479.2219","diam":"1950","material":"ST","year":"1972","globalid":"15b5afbb-feb9-47a6-b450-46f67182587e"},"geometry":{"type":"MultiLineString","coordinates":[[[-114.2167361,51.0927138],[-114.2219336,51.095515]]]}},
{"type":"Feature","properties":{":id":"row-8str~nq8u-wvkv",":version":"rv-3fi2-bn9t-aqfv",":created_at":"2026-09-01T22:30:44.003Z",":updated_at":"2026-09-01T22:30:44.003Z","p_zone":"GLENMORE","status_ind":"ACTIVE","length":"56.442","diam":"1950","material":"ST","year":"1972","globalid":"7b118d85-75c6-447d-a319-91c19acabfcf"},"geometry":{"type":"MultiLineString","coordinates":[[[-114.2301874,51.1034758],[-114.2303317,51.103975]]]}},
{"type":"Feature","properties":{":id":"row-gvbg-ym6z_efhz",":version":"rv-wq3h.k8gk_xivs",":created_at":"2026-09-01T22:30:44.003Z",":updated_at":"2026-09-01T22:30:44.003Z","p_zone":"GLENMORE","status_ind":"ACTIVE","length":"7.9998000000000005","diam":"1950","material":"ST","year":"1972","globalid":"a098cd6e-8196-41b6-8812-4fa4c4b1f55a"},"geometry":{"type":"MultiLineString","coordinates":[[[-114.2301669,51.1034051],[-114.2301874,51.1034758]]]}},
{"type":"Feature","properties":{":id":"row-7v3d~ny3i.tf34",":version":"rv-vvui-gkb7.9d2f",":created_at":"2026-09-01T22:30:44.003Z",":updated_at":"2026-09-01T22:30:44.003Z","p_zone":"GLENMORE","status_ind":"ACTIVE","length":"0.5","diam":"1650","material":"CON","year":"1975","globalid":"1c7c87b6-0fc2-4bca-8d41-bd3204c89539"},"geometry":{"type":"MultiLineString","coordinates":[[[-114.150049,51.06205],[-114.1500454,51.0620461]]]}},
{"type":"Feature","properties":{":id":"row-9epr-5m4s.6phn",":version":"rv-i49t-3uki~bbbc",":created_at":"2026-09-01T22:30:44.003Z",":updated_at":"2026-09-01T22:30:44.003Z","p_zone":"GLENMORE","status_ind":"ACTIVE","length":"0.25","diam":"1500","material":"CON","year":"1974","globalid":"5183f1da-1222-461b-831d-1e9e11fc5c3e"},"geometry":{"type":"MultiLineString","coordinates":[[[-114.1500234,51.062023],[-114.1500253,51.0620249]]]}},
{"type":"Feature","properties":{":id":"row-xq7a-y5u4-5ugz",":version":"rv-x5v6_ej5i-jzcj",":created_at":"2026-09-01T22:30:44.003Z",":updated_at":"2026-09-01T22:30:44.003Z","p_zone":"GLENMORE","status_ind":"ACTIVE","length":"1725.0747000000001","diam":"1500","material":"CON","year":"1974","globalid":"b565e440-dd4e-4bca-a32e-989318000e1e"},"geometry":{"type":"MultiLineString","coordinates":[[[-114.1297849,51.055187],[-114.1331568,51.0560749],[-114.1358078,51.0566204],[-114.1361335,51.0566259],[-114.1387747,51.0566708],[-114.1413118,51.0569427],[-114.1445966,51.0574084],[-114.1455284,51.0576905],[-114.1477307,51.0596031],[-114.1500234,51.062023]]]}},
{"type":"Feature","properties":{":id":"row-yd53_6y9u-ir9i",":version":"rv-jads~nynp_4iif",":created_at":"2026-09-01T22:30:44.003Z",":updated_at":"2026-09-01T22:30:44.003Z","p_zone":"GLENMORE","status_ind":"ACTIVE","length":"362.4212","diam":"1950","material":"CON","year":"1975","globalid":"0edf596f-19e1-4436-824e-16b75b4f3ad1"},"geometry":{"type":"MultiLineString","coordinates":[[[-114.18717,51.0799866],[-114.1869892,51.0799983],[-114.1846026,51.0792514],[-114.1824627,51.0786779]]]}},
{"type":"Feature","properties":{":id":"row-rkf4.a4g7~wcgb",":version":"rv-8cju_py7f.2h8k",":created_at":"2026-09-01T22:30:44.003Z",":updated_at":"2026-09-01T22:30:44.003Z","p_zone":"GLENMORE","status_ind":"ACTIVE","length":"425.1576","diam":"1950","material":"ST","year":"1972","globalid":"8b84a767-fa25-4067-8ccd-8f42f938380d"},"geometry":{"type":"MultiLineString","coordinates":[[[-114.2219336,51.095515],[-114.2227756,51.0959687],[-114.2228438,51.0960055],[-114.2232565,51.0965582],[-114.2256579,51.0984947]]]}},
{"type":"Feature","properties":{":id":"row-39ic~naaq-gw79",":version":"rv-vhjx_h7kn_5j3h",":created_at":"2026-09-01T22:30:44.003Z",":updated_at":"2026-09-01T22:30:44.003Z","p_zone":"GLENMORE","status_ind":"ACTIVE","length":"1.4597","diam":"1950","material":"CON","year":"1975","globalid":"dd9fcfd6-243d-4d52-947b-75163ca60ab5"},"geometry":{"type":"MultiLineString","coordinates":[[[-114.1987963,51.083156],[-114.1988147,51.0831622]]]}},
{"type":"Feature","properties":{":id":"row-gccm.hgua-6x84",":version":"rv-q4kp~jne9-d8mp",":created_at":"2026-09-01T22:30:44.003Z",":updated_at":"2026-09-01T22:30:44.003Z","p_zone":"GLENMORE","status_ind":"ACTIVE","length":"1.0","diam":"1650","material":"CON","year":"1975","globalid":"237b6ed1-342f-4844-87c1-40837d2156b9"},"geometry":{"type":"MultiLineString","coordinates":[[[-114.1500454,51.0620461],[-114.1500381,51.0620384]]]}},
{"type":"Feature","properties":{":id":"row-2fgy.tmkf.p4q5",":version":"rv-zn6g-6na8.dusm",":created_at":"2026-09-01T22:30:44.003Z",":updated_at":"2026-09-01T22:30:44.003Z","p_zone":"GLENMORE","status_ind":"ACTIVE","length":"1.75","diam":"1500","material":"CON","year":"1974","globalid":"04964b34-dce7-4784-8d7c-93d1ff651293"},"geometry":{"type":"MultiLineString","coordinates":[[[-114.1500253,51.0620249],[-114.1500381,51.0620384]]]}},
{"type":"Feature","properties":{":id":"row-w4xq-62vy_xavy",":version":"rv-35nf~ft6d_n2n2",":created_at":"2026-09-01T22:30:44.003Z",":updated_at":"2026-09-01T22:30:44.003Z","p_zone":"GLENMORE","status_ind":"ACTIVE","length":"1.9067","diam":"400","material":"PDI","year":"1975","globalid":"3648ba77-9867-4e8f-9b61-0f2ebc778cd6"},"geometry":{"type":"MultiLineString","coordinates":[[[-114.2098715,51.0889927],[-114.2098538,51.0890057]]]}},
{"type":"Feature","properties":{":id":"row-esmu-w5ep.k5wz",":version":"rv-anw8_as4j_tqw7",":created_at":"2026-09-01T22:30:44.003Z",":updated_at":"2026-09-01T22:30:44.003Z","p_zone":"GLENMORE","status_ind":"ACTIVE","length":"0.9999","diam":"400","material":"PDI","year":"1975","globalid":"f26c163f-907f-4689-9d38-18a033a56999"},"geometry":{"type":"MultiLineString","coordinates":[[[-114.1708786,51.0756265],[-114.1708842,51.0756183]]]}},
{"type":"Feature","properties":{":id":"row-j4gn_ypq9.cbj8",":version":"rv-npf8.vb69~g4tn",":created_at":"2026-09-01T22:30:44.003Z",":updated_at":"2026-09-01T22:30:44.003Z","p_zone":"GLENMORE","status_ind":"ACTIVE","length":"1.3596000000000001","diam":"300","material":"DI","year":"1975","globalid":"fd243e01-3558-4d4b-9f55-8cad4e27ad3e"},"geometry":{"type":"MultiLineString","coordinates":[[[-114.1530573,51.0649741],[-114.1530726,51.0649667]]]}},
{"type":"Feature","properties":{":id":"row-44nk-7qmc-9i5r",":version":"rv-hiqi-7du9_rmaa",":created_at":"2026-09-01T22:30:44.003Z",":updated_at":"2026-09-01T22:30:44.003Z","p_zone":"GLENMORE","status_ind":"ACTIVE","length":"1.1049","diam":"250","material":"DI","year":"1975","globalid":"dbbf0931-5129-40cb-aa71-f36a9440c88c"},"geometry":{"type":"MultiLineString","coordinates":[[[-114.1871728,51.0799964],[-114.18717,51.0799866]]]}},
{"type":"Feature","properties":{":id":"row-8iid-ftq6-3ere",":version":"rv-7yne-85t3_edqp",":created_at":"2026-09-01T22:30:44.003Z",":updated_at":"2026-09-01T22:30:44.003Z","p_zone":"GLENMORE","status_ind":"ACTIVE","length":"405.38120000000004","diam":"1950","material":"CON","year":"1975","globalid":"6704ac21-87db-4268-b25c-60e9e9701d95"},"geometry":{"type":"MultiLineString","coordinates":[[[-114.1708842,51.0756183],[-114.1738901,51.0764239],[-114.175897,51.07717],[-114.1760699,51.0772163]]]}},
{"type":"Feature","properties":{":id":"row-hmgn-qn22.7n5u",":version":"rv-5uux~tzxv_3c2v",":created_at":"2026-09-01T22:30:44.003Z",":updated_at":"2026-09-01T22:30:44.003Z","p_zone":"GLENMORE","status_ind":"ACTIVE","length":"258.4612","diam":"1950","material":"ST","year":"1972","globalid":"8fb6541e-df8b-4cea-bc9e-b9ae618201f9"},"geometry":{"type":"MultiLineString","coordinates":[[[-114.2277309,51.1001662],[-114.2296862,51.1017427],[-114.2297781,51.1020608]]]}},
{"type":"Feature","properties":{":id":"row-wgwi-gw5v_me49",":version":"rv-u8bm~d32t.y296",":created_at":"2026-09-01T22:30:44.003Z",":updated_at":"2026-09-01T22:30:44.003Z","p_zone":"GLENMORE","status_ind":"ACTIVE","length":"631.7984","diam":"1950","material":"CON","year":"1975","globalid":"e9285d78-4ce4-4c63-b711-cfa3946e251b"},"geometry":{"type":"MultiLineString","coordinates":[[[-114.2098538,51.0890057],[-114.2111378,51.0896976],[-114.2167068,51.092698]]]}},
{"type":"Feature","properties":{":id":"row-hcrp~s3ie-v6a6",":version":"rv-3d6y_3khv_n99q",":created_at":"2026-09-01T22:30:44.003Z",":updated_at":"2026-09-01T22:30:44.003Z","p_zone":"GLENMORE","status_ind":"ACTIVE","length":"2.7","diam":"1950","material":"ST","year":"1972","globalid":"13ce77f7-c4af-4bda-a4d7-5bd7ef8e1152"},"geometry":{"type":"MultiLineString","coordinates":[[[-114.2167068,51.092698],[-114.2167361,51.0927138]]]}},
{"type":"Feature","properties":{":id":"row-548r-dm7p.ep5b",":version":"rv-u3p3.864u~y3vu",":created_at":"2026-09-01T22:30:44.003Z",":updated_at":"2026-09-01T22:30:44.003Z","p_zone":"GLENMORE","status_ind":"ACTIVE","length":"152.0","diam":"1950","material":"ST","year":"1972","globalid":"a1ca7b4d-6966-4a60-8011-4251413a98ad"},"geometry":{"type":"MultiLineString","coordinates":[[[-114.2301669,51.1034051],[-114.2297781,51.1020608]]]}},
{"type":"Feature","properties":{":id":"row-qzt7~ya6a_awh4",":version":"rv-62ef.2xxq~jjgw",":created_at":"2026-09-01T22:30:44.003Z",":updated_at":"2026-09-01T22:30:44.003Z","p_zone":"GLENMORE","status_ind":"ACTIVE","length":"235.9154","diam":"1950","material":"ST","year":"1972","globalid":"e6afc360-bb75-41a3-a0df-462cb51eef84"},"geometry":{"type":"MultiLineString","coordinates":[[[-114.2256579,51.0984947],[-114.2277309,51.1001662]]]}},
{"type":"Feature","properties":{":id":"row-gikn_wypp~4hww",":version":"rv-rgri~7anj-uqmc",":created_at":"2026-09-01T22:30:44.003Z",":updated_at":"2026-09-01T22:30:44.003Z","p_zone":"GLENMORE","status_ind":"ACTIVE","length":"904.1986","diam":"1950","material":"CON","year":"1975","globalid":"d01b5688-05a8-4902-a45a-a34887dffbf1"},"geometry":{"type":"MultiLineString","coordinates":[[[-114.1987774,51.0831497],[-114.1974241,51.0826975],[-114.1966311,51.0821616],[-114.1965693,51.082159],[-114.1964626,51.082154],[-114.1963559,51.0821482],[-114.1962494,51.0821418],[-114.1961429,51.0821347],[-114.1960366,51.0821269],[-114.1959304,51.0821184],[-114.1958244,51.0821091],[-114.1957185,51.0820992],[-114.1956128,51.0820886],[-114.1955073,51.0820773],[-114.195402,51.0820654],[-114.1952968,51.0820527],[-114.1951919,51.0820393],[-114.1950872,51.0820253],[-114.1949828,51.0820106],[-114.1948786,51.0819951],[-114.1947746,51.081979],[-114.1946709,51.0819623],[-114.1945675,51.0819448],[-114.1944644,51.0819267],[-114.1943617,51.0819079],[-114.1942592,51.0818884],[-114.194157,51.0818683],[-114.1940552,51.0818474],[-114.1939538,51.081826],[-114.1938527,51.0818038],[-114.1932448,51.0816939],[-114.1923896,51.0814642],[-114.1901966,51.0808753],[-114.1896578,51.0805577],[-114.1877871,51.0800553],[-114.1874613,51.0799678],[-114.18717,51.0799866]]]}},
{"type":"Feature","properties":{":id":"row-u3qe.i2rg_zbvh",":version":"rv-9rw5-fjsb_p3kd",":created_at":"2026-09-01T22:30:44.003Z",":updated_at":"2026-09-01T22:30:44.003Z","p_zone":"GLENMORE","status_ind":"ACTIVE","length":"1148.1906000000001","diam":"1950","material":"CON","year":"1975","globalid":"ab0eddaf-f9f7-49d9-9edf-e5e006aa2f9d"},"geometry":{"type":"MultiLineString","coordinates":[[[-114.1530726,51.0649667],[-114.1562942,51.0669259],[-114.1578509,51.0678388],[-114.1580821,51.0680146],[-114.1641447,51.0725538]]]}},
{"type":"Feature","properties":{":id":"row-dfxe-yjam_b382",":version":"rv-re5t~a3vn-jz8v",":created_at":"2026-09-01T22:30:44.003Z",":updated_at":"2026-09-01T22:30:44.003Z","p_zone":"GLENMORE","status_ind":"ACTIVE","length":"2.3024","diam":"300","material":"PDI","year":"1975","globalid":"89eef073-ab25-4c27-a618-a186fdeee2e3"},"geometry":{"type":"MultiLineString","coordinates":[[[-114.1297849,51.055187],[-114.1297722,51.0552061]]]}},
{"type":"Feature","properties":{":id":"row-gb6k~39ng~bua6",":version":"rv-s4x9_x7zv.q4dk",":created_at":"2026-09-01T22:30:44.003Z",":updated_at":"2026-09-01T22:30:44.003Z","p_zone":"GLENMORE","status_ind":"ACTIVE","length":"388.252","diam":"1950","material":"CON","year":"1975","globalid":"5bfc2658-2325-4a7a-8c2b-3d981b2ef3f3"},"geometry":{"type":"MultiLineString","coordinates":[[[-114.1530726,51.0649667],[-114.1528222,51.0648143],[-114.1509999,51.0630536],[-114.1501479,51.0621543],[-114.150049,51.06205]]]}},
{"type":"Feature","properties":{":id":"row-fbdk.h5jq-us6u",":version":"rv-zbuj.5u8e_zdue",":created_at":"2026-09-01T22:30:44.003Z",":updated_at":"2026-09-01T22:30:44.003Z","p_zone":"GLENMORE","status_ind":"ACTIVE","length":"0.6986","diam":"300","material":"PDI","year":"1975","globalid":"577833c9-6f92-458f-aad3-7d5f0b9c5d75"},"geometry":{"type":"MultiLineString","coordinates":[[[-114.1641447,51.0725538],[-114.1641523,51.0725497]]]}},
{"type":"Feature","properties":{":id":"row-gzyi-a5h3_2mgp",":version":"rv-hbkt-qcf5~f6p7",":created_at":"2026-09-01T22:30:44.003Z",":updated_at":"2026-09-01T22:30:44.003Z","p_zone":"GLENMORE","status_ind":"ACTIVE","length":"1011.2539","diam":"1950","material":"CON","year":"1975","globalid":"a05ad77b-a9e5-4391-af0b-d3a0525b890f"},"geometry":{"type":"MultiLineString","coordinates":[[[-114.2098538,51.0890057],[-114.199334,51.0833357],[-114.1988147,51.0831622]]]}},
{"type":"Feature","properties":{":id":"row-qje9.sq3j~r4pd",":version":"rv-ejsr.dsqw-bh7g",":created_at":"2026-09-01T22:30:44.003Z",":updated_at":"2026-09-01T22:30:44.003Z","p_zone":"GLENMORE","status_ind":"ACTIVE","length":"1.4952","diam":"1950","material":"CON","year":"1975","globalid":"f27f0535-4e3f-4282-8896-02db48e69b57"},"geometry":{"type":"MultiLineString","coordinates":[[[-114.1987774,51.0831497],[-114.1987963,51.083156]]]}},
{"type":"Feature","properties":{":id":"row-72xb-jmk4-xqmb",":version":"rv-77ni.tfrs_ixbw",":created_at":"2026-09-01T22:30:44.003Z",":updated_at":"2026-09-01T22:30:44.003Z","p_zone":"GLENMORE","status_ind":"ACTIVE","length":"41.100100000000005","diam":"1950","material":"ST","year":"1975","globalid":"e1482e45-b6de-4dad-8bb4-cd150ce58206"},"geometry":{"type":"MultiLineString","coordinates":[[[-114.1824627,51.0786779],[-114.181923,51.0785332]]]}},
{"type":"Feature","properties":{":id":"row-rwg6.dp5s_77x6",":version":"rv-e99g_3a65-evi8",":created_at":"2026-09-01T22:30:44.003Z",":updated_at":"2026-09-01T22:30:44.003Z","p_zone":"GLENMORE","status_ind":"ACTIVE","length":"439.7685","diam":"1950","material":"CON","year":"1975","globalid":"bcec063c-e96f-4486-acb8-084428ef2c1b"},"geometry":{"type":"MultiLineString","coordinates":[[[-114.181923,51.0785332],[-114.1796078,51.0779127],[-114.1786251,51.0779013],[-114.1760699,51.0772163]]]}},
{"type":"Feature","properties":{":id":"row-xn6b_spdn~vfjj",":version":"rv-wznp-aewv-z87y",":created_at":"2026-09-01T22:30:44.003Z",":updated_at":"2026-09-01T22:30:44.003Z","p_zone":"GLENMORE","status_ind":"ACTIVE","length":"0.7847000000000001","diam":"300","material":"PDI","year":"1975","globalid":"209d343d-6fd8-4098-b48c-95b0eefa45a5"},"geometry":{"type":"MultiLineString","coordinates":[[[-114.1987827,51.0831435],[-114.1987774,51.0831497]]]}},
{"type":"Feature","properties":{":id":"row-xyt4-pwy6.gvg5",":version":"rv-7s2x-3e66~45i7",":created_at":"2026-09-01T22:30:44.003Z",":updated_at":"2026-09-01T22:30:44.003Z","p_zone":"GLENMORE","status_ind":"ACTIVE","length":"0.7847000000000001","diam":"300","material":"PDI","year":"1975","globalid":"b886d6dc-f9a0-4261-93f0-a6ed029d69f6"},"geometry":{"type":"MultiLineString","coordinates":[[[-114.1988199,51.083156],[-114.1988147,51.0831622]]]}},
{"type":"Feature","properties":{":id":"row-f66w-9hmx.muej",":version":"rv-rkh9_pgzs-szeb",":created_at":"2026-09-01T22:30:44.003Z",":updated_at":"2026-09-01T22:30:44.003Z","p_zone":"GLENMORE","status_ind":"ACTIVE","length":"1.5","diam":"400","material":"DI","year":"1975","globalid":"fda8a37c-53e8-476a-968b-6e5e68e50ddb"},"geometry":{"type":"MultiLineString","coordinates":[[[-114.1760783,51.0772039],[-114.1760699,51.0772163]]]}},
{"type":"Feature","properties":{":id":"row-ryfu_efnu.pr2i",":version":"rv-p9kx.xpnp.qgz5",":created_at":"2026-09-01T22:30:44.003Z",":updated_at":"2026-09-01T22:30:44.003Z","p_zone":"GLENMORE","status_ind":"ACTIVE","length":"219.4531","diam":"1950","material":"CON","year":"1975","globalid":"a2bb25ec-b6b9-4209-ad7c-c69f64d21ed1"},"geometry":{"type":"MultiLineString","coordinates":[[[-114.1641447,51.0725538],[-114.164578,51.0728782],[-114.1660622,51.0739892],[-114.1661879,51.0740447]]]}},
{"type":"Feature","properties":{":id":"row-aftj~np7g.2wv7",":version":"rv-z7xu_irfn-jhf3",":created_at":"2026-09-01T22:30:44.003Z",":updated_at":"2026-09-01T22:30:44.003Z","p_zone":"GLENMORE","status_ind":"ACTIVE","length":"364.3002","diam":"1950","material":"CON","year":"1975","globalid":"2f42a755-f414-4306-8a72-b3324a0c4b1c"},"geometry":{"type":"MultiLineString","coordinates":[[[-114.1663028,51.0740955],[-114.1675144,51.0746306],[-114.1690891,51.0751371],[-114.1708842,51.0756183]]]}},
{"type":"Feature","properties":{":id":"row-99a5.9yp8.vr49",":version":"rv-ugjv~etxf~a545",":created_at":"2026-09-01T22:30:44.003Z",":updated_at":"2026-09-01T22:30:44.003Z","p_zone":"GLENMORE","status_ind":"ACTIVE","length":"9.8388","diam":"1950","material":"ST","year":"2024","globalid":"14338bd2-4e11-4832-911e-4ef15e899567"},"geometry":{"type":"MultiLineString","coordinates":[[[-114.1661879,51.0740447],[-114.1663028,51.0740955]]]}}
]
}
